ONEWEB-0446             
1 51640U 22012U   25278.90021875 -.00000067  00000+0 -22886-3 0  9992
2 51640  87.8750  86.9909 0001838  93.1379 266.9959 13.10376997176024
ONEWEB-0448             
1 51641U 22012V   25278.90520209  .00000236  00000+0  63869-3 0  9990
2 51641  87.8748  86.9894 0001558  90.8098 269.3208 13.10376520175997
ONEWEB-0449             
1 51642U 22012W   25278.98654498  .00000463  00000+0  12895-2 0  9991
2 51642  87.8750  86.9435 0001655  71.8657 288.2650 13.10376255176010
ONEWEB-0451             
1 51643U 22012X   25279.12641620  .00000042  00000+0  76190-4 0  9995
2 51643  87.9089  56.3522 0001688  91.8796 268.2529 13.17648496180202
ONEWEB-0452             
1 51644U 22012Y   25279.12473769  .00000147  00000+0  34618-3 0  9997
2 51644  87.9083  56.4130 0001545  88.3113 271.8195 13.17648584180217
ONEWEB-0456             
1 51646U 22012AA  25278.99650360  .00000669  00000+0  18800-2 0  9990
2 51646  87.8757  86.9044 0001511  95.0097 265.1203 13.10374390176054
ONEWEB-0457             
1 51647U 22012AB  25278.89689347 -.00000242  00000+0 -72837-3 0  9997
2 51647  87.8745  86.9793 0001955  82.3188 277.8161 13.10376908176044
ONEWEB-0458             
1 51648U 22012AC  25278.99485029  .00000720  00000+0  20258-2 0  9998
2 51648  87.8744  86.9303 0001520  84.2799 275.8502 13.10374365176017
ONEWEB-0461             
1 51649U 22012AD  25279.14667515  .00000016  00000+0  87006-5 0  9994
2 51649  87.9088  56.3624 0001871  97.0097 263.1247 13.17648703180433
ONEWEB-0463             
1 51650U 22012AE  25279.12811760 -.00000135  00000+0 -38207-3 0  9998
2 51650  87.9070  56.4219 0001659  94.7109 265.4212 13.17647227180212
ONEWEB-0464             
1 51651U 22012AF  25278.99152730  .00000514  00000+0  14359-2 0  9998
2 51651  87.8751  86.9701 0001407  98.2705 261.8582 13.10375425176030
ONEWEB-0468             
1 51652U 22012AG  25278.99817015  .00000682  00000+0  19172-2 0  9997
2 51652  87.8744  86.9610 0001561  95.1155 265.0150 13.10373952176016
ONEWEB-0473             
1 51653U 22012AH  25278.90686609  .00000231  00000+0  62597-3 0  9992
2 51653  87.8748  86.9828 0001549  88.1500 271.9804 13.10376086176006
ONEWEB-0474             
1 51654U 22012AJ  25278.89854925 -.00000471  00000+0 -13850-2 0  9994
2 51654  87.8754  86.9464 0001327  94.0559 266.0720 13.10376144175998
ONEWEB-0475             
1 51655U 22012AK  25279.13992757  .00000136  00000+0  31729-3 0  9991
2 51655  87.9080  56.4038 0000928  93.7091 266.4147 13.17650084180239
ONEWEB-0490             
1 54113U 22138A   25279.14832334  .00000116  00000+0  25629-3 0  9997
2 54113  87.9287 355.4822 0001762 106.2029 253.9297 13.19726063143320
ONEWEB-0492             
1 54114U 22138B   25278.94615172  .00000577  00000+0  14095-2 0  9999
2 54114  87.9289 355.5432 0001872 107.4124 252.7213 13.19721025143308
