[{"OBJECT_NAME":"ONEWEB-0446","OBJECT_ID":"2022-012U","EPOCH":"2025-10-05T21:36:18.900000","MEAN_MOTION":13.10376997,"ECCENTRICITY":0.0001838,"INCLINATION":87.875,"RA_OF_ASC_NODE":86.9909,"ARG_OF_PERICENTER":93.1379,"MEAN_ANOMALY":266.9959,"EPHEMERIS_TYPE":0,"CLASSIFICATION_TYPE":"U","NORAD_CAT_ID":51640,"ELEMENT_SET_NO":999,"REV_AT_EPOCH":17602,"BSTAR":-0.00022886,"MEAN_MOTION_DOT":-6.7e-7,"MEAN_MOTION_DDOT":0},{"OBJECT_NAME":"ONEWEB-0448","OBJECT_ID":"2022-012V","EPOCH":"2025-10-05T21:43:29.460576","MEAN_MOTION":13.1037652,"ECCENTRICITY":0.0001558,"INCLINATION":87.8748,"RA_OF_ASC_NODE":86.9894,"ARG_OF_PERICENTER":90.8098,"MEAN_ANOMALY":269.3208,"EPHEMERIS_TYPE":0,"CLASSIFICATION_TYPE":"U","NORAD_CAT_ID":51641,"ELEMENT_SET_NO":999,"REV_AT_EPOCH":17599,"BSTAR":0.00063869,"MEAN_MOTION_DOT":2.36e-6,"MEAN_MOTION_DDOT":0},{"OBJECT_NAME":"ONEWEB-0449","OBJECT_ID":"2022-012W","EPOCH":"2025-10-05T23:40:37.486272","MEAN_MOTION":13.10376255,"ECCENTRICITY":0.0001655,"INCLINATION":87.875,"RA_OF_ASC_NODE":86.9435,"ARG_OF_PERICENTER":71.8657,"MEAN_ANOMALY":288.265,"EPHEMERIS_TYPE":0,"CLASSIFICATION_TYPE":"U","NORAD_CAT_ID":51642,"ELEMENT_SET_NO":999,"REV_AT_EPOCH":17601,"BSTAR":0.0012895,"MEAN_MOTION_DOT":4.63e-6,"MEAN_MOTION_DDOT":0},{"OBJECT_NAME":"ONEWEB-0451","OBJECT_ID":"2022-012X","EPOCH":"2025-10-06T03:02:02.359680","MEAN_MOTION":13.17648496,"ECCENTRICITY":0.0001688,"INCLINATION":87.9089,"RA_OF_ASC_NODE":56.3522,"ARG_OF_PERICENTER":91.8796,"MEAN_ANOMALY":268.2529,"EPHEMERIS_TYPE":0,"CLASSIFICATION_TYPE":"U","NORAD_CAT_ID":51643,"ELEMENT_SET_NO":999,"REV_AT_EPOCH":18020,"BSTAR":7.619e-5,"MEAN_MOTION_DOT":4.2e-7,"MEAN_MOTION_DDOT":0},{"OBJECT_NAME":"ONEWEB-0452","OBJECT_ID":"2022-012Y","EPOCH":"2025-10-06T02:59:37.336416","MEAN_MOTION":13.17648584,"ECCENTRICITY":0.0001545,"INCLINATION":87.9083,"RA_OF_ASC_NODE":56.413,"ARG_OF_PERICENTER":88.3113,"MEAN_ANOMALY":271.8195,"EPHEMERIS_TYPE":0,"CLASSIFICATION_TYPE":"U","NORAD_CAT_ID":51644,"ELEMENT_SET_NO":999,"REV_AT_EPOCH":18021,"BSTAR":0.00034618,"MEAN_MOTION_DOT":1.47e-6,"MEAN_MOTION_DDOT":0},{"OBJECT_NAME":"ONEWEB-0456","OBJECT_ID":"2022-012AA","EPOCH":"2025-10-05T23:54:57.911040","MEAN_MOTION":13.1037439,"ECCENTRICITY":0.0001511,"INCLINATION":87.8757,"RA_OF_ASC_NODE":86.9044,"ARG_OF_PERICENTER":95.0097,"MEAN_ANOMALY":265.1203,"EPHEMERIS_TYPE":0,"CLASSIFICATION_TYPE":"U","NORAD_CAT_ID":51646,"ELEMENT_SET_NO":999,"REV_AT_EPOCH":17605,"BSTAR":0.00188,"MEAN_MOTION_DOT":6.69e-6,"MEAN_MOTION_DDOT":0},{"OBJECT_NAME":"ONEWEB-0457","OBJECT_ID":"2022-012AB","EPOCH":"2025-10-05T21:31:31.595808","MEAN_MOTION":13.10376908,"ECCENTRICITY":0.0001955,"INCLINATION":87.8745,"RA_OF_ASC_NODE":86.9793,"ARG_OF_PERICENTER":82.3188,"MEAN_ANOMALY":277.8161,"EPHEMERIS_TYPE":0,"CLASSIFICATION_TYPE":"U","NORAD_CAT_ID":51647,"ELEMENT_SET_NO":999,"REV_AT_EPOCH":17604,"BSTAR":-0.00072837,"MEAN_MOTION_DOT":-2.42e-6,"MEAN_MOTION_DDOT":0},{"OBJECT_NAME":"ONEWEB-0458","OBJECT_ID":"2022-012AC","EPOCH":"2025-10-05T23:52:35.065056","MEAN_MOTION":13.10374365,"ECCENTRICITY":0.000152,"INCLINATION":87.8744,"RA_OF_ASC_NODE":86.9303,"ARG_OF_PERICENTER":84.2799,"MEAN_ANOMALY":275.8502,"EPHEMERIS_TYPE":0,"CLASSIFICATION_TYPE":"U","NORAD_CAT_ID":51648,"ELEMENT_SET_NO":999,"REV_AT_EPOCH":17601,"BSTAR":0.0020258,"MEAN_MOTION_DOT":7.2e-6,"MEAN_MOTION_DDOT":0},{"OBJECT_NAME":"ONEWEB-0461","OBJECT_ID":"2022-012AD","EPOCH":"2025-10-06T03:31:12.732960","MEAN_MOTION":13.17648703,"ECCENTRICITY":0.0001871,"INCLINATION":87.9088,"RA_OF_ASC_NODE":56.3624,"ARG_OF_PERICENTER":97.0097,"MEAN_ANOMALY":263.1247,"EPHEMERIS_TYPE":0,"CLASSIFICATION_TYPE":"U","NORAD_CAT_ID":51649,"ELEMENT_SET_NO":999,"REV_AT_EPOCH":18043,"BSTAR":8.7006e-6,"MEAN_MOTION_DOT":1.6e-7,"MEAN_MOTION_DDOT":0},{"OBJECT_NAME":"ONEWEB-0463","OBJECT_ID":"2022-012AE","EPOCH":"2025-10-06T03:04:29.360640","MEAN_MOTION":13.17647227,"ECCENTRICITY":0.0001659,"INCLINATION":87.907,"RA_OF_ASC_NODE":56.4219,"ARG_OF_PERICENTER":94.7109,"MEAN_ANOMALY":265.4212,"EPHEMERIS_TYPE":0,"CLASSIFICATION_TYPE":"U","NORAD_CAT_ID":51650,"ELEMENT_SET_NO":999,"REV_AT_EPOCH":18021,"BSTAR":-0.00038207,"MEAN_MOTION_DOT":-1.35e-6,"MEAN_MOTION_DDOT":0},{"OBJECT_NAME":"ONEWEB-0464","OBJECT_ID":"2022-012AF","EPOCH":"2025-10-05T23:47:47.958720","MEAN_MOTION":13.10375425,"ECCENTRICITY":0.0001407,"INCLINATION":87.8751,"RA_OF_ASC_NODE":86.9701,"ARG_OF_PERICENTER":98.2705,"MEAN_ANOMALY":261.8582,"EPHEMERIS_TYPE":0,"CLASSIFICATION_TYPE":"U","NORAD_CAT_ID":51651,"ELEMENT_SET_NO":999,"REV_AT_EPOCH":17603,"BSTAR":0.0014359,"MEAN_MOTION_DOT":5.14e-6,"MEAN_MOTION_DDOT":0},{"OBJECT_NAME":"ONEWEB-0468","OBJECT_ID":"2022-012AG","EPOCH":"2025-10-05T23:57:21.900960","MEAN_MOTION":13.10373952,"ECCENTRICITY":0.0001561,"INCLINATION":87.8744,"RA_OF_ASC_NODE":86.961,"ARG_OF_PERICENTER":95.1155,"MEAN_ANOMALY":265.015,"EPHEMERIS_TYPE":0,"CLASSIFICATION_TYPE":"U","NORAD_CAT_ID":51652,"ELEMENT_SET_NO":999,"REV_AT_EPOCH":17601,"BSTAR":0.0019172,"MEAN_MOTION_DOT":6.82e-6,"MEAN_MOTION_DDOT":0},{"OBJECT_NAME":"ONEWEB-0473","OBJECT_ID":"2022-012AH","EPOCH":"2025-10-05T21:45:53.230176","MEAN_MOTION":13.10376086,"ECCENTRICITY":0.0001549,"INCLINATION":87.8748,"RA_OF_ASC_NODE":86.9828,"ARG_OF_PERICENTER":88.15,"MEAN_ANOMALY":271.9804,"EPHEMERIS_TYPE":0,"CLASSIFICATION_TYPE":"U","NORAD_CAT_ID":51653,"ELEMENT_SET_NO":999,"REV_AT_EPOCH":17600,"BSTAR":0.00062597,"MEAN_MOTION_DOT":2.31e-6,"MEAN_MOTION_DDOT":0},{"OBJECT_NAME":"ONEWEB-0474","OBJECT_ID":"2022-012AJ","EPOCH":"2025-10-05T21:33:54.655200","MEAN_MOTION":13.10376144,"ECCENTRICITY":0.0001327,"INCLINATION":87.8754,"RA_OF_ASC_NODE":86.9464,"ARG_OF_PERICENTER":94.0559,"MEAN_ANOMALY":266.072,"EPHEMERIS_TYPE":0,"CLASSIFICATION_TYPE":"U","NORAD_CAT_ID":51654,"ELEMENT_SET_NO":999,"REV_AT_EPOCH":17599,"BSTAR":-0.001385,"MEAN_MOTION_DOT":-4.71e-6,"MEAN_MOTION_DDOT":0},{"OBJECT_NAME":"ONEWEB-0475","OBJECT_ID":"2022-012AK","EPOCH":"2025-10-06T03:21:29.742048","MEAN_MOTION":13.17650084,"ECCENTRICITY":9.28e-5,"INCLINATION":87.908,"RA_OF_ASC_NODE":56.4038,"ARG_OF_PERICENTER":93.7091,"MEAN_ANOMALY":266.4147,"EPHEMERIS_TYPE":0,"CLASSIFICATION_TYPE":"U","NORAD_CAT_ID":51655,"ELEMENT_SET_NO":999,"REV_AT_EPOCH":18023,"BSTAR":0.00031729,"MEAN_MOTION_DOT":1.36e-6,"MEAN_MOTION_DDOT":0},{"OBJECT_NAME":"ONEWEB-0490","OBJECT_ID":"2022-138A","EPOCH":"2025-10-06T03:33:35.136576","MEAN_MOTION":13.19726063,"ECCENTRICITY":0.0001762,"INCLINATION":87.9287,"RA_OF_ASC_NODE":355.4822,"ARG_OF_PERICENTER":106.2029,"MEAN_ANOMALY":253.9297,"EPHEMERIS_TYPE":0,"CLASSIFICATION_TYPE":"U","NORAD_CAT_ID":54113,"ELEMENT_SET_NO":999,"REV_AT_EPOCH":14332,"BSTAR":0.00025629,"MEAN_MOTION_DOT":1.16e-6,"MEAN_MOTION_DDOT":0},{"OBJECT_NAME":"ONEWEB-0492","OBJECT_ID":"2022-138B","EPOCH":"2025-10-05T22:42:27.508608","MEAN_MOTION":13.19721025,"ECCENTRICITY":0.0001872,"INCLINATION":87.9289,"RA_OF_ASC_NODE":355.5432,"ARG_OF_PERICENTER":107.4124,"MEAN_ANOMALY":252.7213,"EPHEMERIS_TYPE":0,"CLASSIFICATION_TYPE":"U","NORAD_CAT_ID":54114,"ELEMENT_SET_NO":999,"REV_AT_EPOCH":14330,"BSTAR":0.0014095,"MEAN_MOTION_DOT":5.77e-6,"MEAN_MOTION_DDOT":0}]
